{"fetched_at":"2026-05-24T13:25:32Z","count":16689,"tles":[{"name":"STARLINK-36041","line1":"1 66798U 25278H   26143.99749213  .00027626  00000+0  10086-2 0  9999","line2":"2 66798  43.0042  49.3123 0001429 271.6325  88.4363 15.27616370 26722","category":"Starlink"},{"name":"STARLINK-34673","line1":"1 65090U 25167N   26144.10867973  .00026594  00000+0  90683-3 0  9993","line2":"2 65090  53.1601  36.5727 0001169  84.6028 275.5106 15.30198816 45022","category":"Starlink"},{"name":"SL-12 R/B(2)","line1":"1 17873U 79035E   26105.09071954  .00000124  00000+0  00000+0 0  9994","line2":"2 17873   5.3783 282.6945 0025444 252.6236  85.3553  1.00164416184538","category":"Other"},{"name":"ROBUSTA 1B","line1":"1 42792U 17036AD  23289.73389548  .09781629  23598-5  10320-2 0  9994","line2":"2 42792  97.0969 333.1645 0009033 260.0160 100.0120 16.37602079352297","category":"Other"},{"name":"STARLINK-5181","line1":"1 54070U 22136V   26143.90770990  .00000763  00000+0  66063-4 0  9997","line2":"2 54070  53.2164   6.1486 0001321  90.1867 269.9277 15.08832667198200","category":"Starlink"},{"name":"STARLINK-36843","line1":"1 67856U 26034G   26144.21811041  .00014164  00000+0  48941-3 0  9996","line2":"2 67856  53.1553 213.1373 0001012  86.0943 274.0173 15.30201648 15606","category":"Starlink"},{"name":"FENGYUN 1C DEB","line1":"1 32303U 99025CWU 23154.53175834  .00003636  00000+0  20629-2 0  9995","line2":"2 32303  97.8221  53.1598 0113171 134.1502 226.9043 14.07276156796426","category":"Weather"},{"name":"STARLINK-2698","line1":"1 48458U 21040AG  26143.83633903  .00001518  00000+0  60660-4 0  9993","line2":"2 48458  53.1574 189.2601 0001211  81.4490 278.6648 15.31701259278905","category":"Starlink"},{"name":"COSMOS 2251 DEB","line1":"1 35701U 93036APW 26100.34110371  .00001791  00000+0  12412-2 0  9995","line2":"2 35701  73.9966 102.8269 0290420 285.9434  70.9870 13.81331839637960","category":"Other"},{"name":"STARLINK-3447","line1":"1 51736U 22016Y   26143.96805260 -.00000862  00000+0 -36093-4 0  9997","line2":"2 51736  53.2156 341.2707 0001392  90.4256 269.6896 15.08842609234920","category":"Starlink"},{"name":"STARLINK-35580","line1":"1 66155U 25240K   26144.20329310  .00018549  00000+0  55867-3 0  9993","line2":"2 66155  53.1599  71.0893 0001159  92.3655 267.7480 15.34405139 33567","category":"Starlink"},{"name":"FENGYUN 1C DEB","line1":"1 29847U 99025ER  26104.76992887 -.00000021  00000+0  13713-4 0  9996","line2":"2 29847  98.9106 103.0637 0085794  56.1735 122.1014 14.03096021984609","category":"Weather"},{"name":"STARLINK-1368","line1":"1 45540U 20025K   26144.18005079  .00039961  00000+0  11352-2 0  9995","line2":"2 45540  53.1562 109.3760 0004872  69.2908 290.8617 15.35808777336740","category":"Starlink"},{"name":"STARLINK-5962","line1":"1 55992U 23042G   23362.46756635  .00002243  00000+0  18103-3 0  9995","line2":"2 55992  43.0030  95.3118 0001045 277.7450  82.3273 15.02539081 42578","category":"Starlink"},{"name":"STARLINK-37567","line1":"1 68903U 26097J   26144.07510551  .00028664  00000+0  52636-3 0  9991","line2":"2 68903  97.2854 339.8232 0001827  83.5203 276.6256 15.49211147  3789","category":"Starlink"},{"name":"CZ-3B DEB","line1":"1 39333U 10042E   26104.85799161  .00000159  00000+0  13442-2 0  9997","line2":"2 39333  24.4232  35.8733 7442836 105.2871  18.3150  1.91235334 88901","category":"Other"},{"name":"STARLINK-4128","line1":"1 53249U 22086H   26144.22426978 -.00000707  00000+0 -26374-4 0  9999","line2":"2 53249  53.2160 215.0418 0001188  97.7961 262.3166 15.08831379212488","category":"Starlink"},{"name":"FENGYUN 1C DEB","line1":"1 31263U 99025BMV 23177.48941513  .00010449  00000+0  34879-2 0  9995","line2":"2 31263  99.0490   6.6494 0044749  44.8440 315.6347 14.37108194840244","category":"Weather"},{"name":"STARLINK-1704","line1":"1 47625U 21012F   26144.02369394  .00044598  00000+0  66095-3 0  9991","line2":"2 47625  53.0474  61.6241 0007399  86.1933 273.9922 15.54800652291784","category":"Starlink"},{"name":"STARLINK-30210","line1":"1 57292U 23096C   26065.94513889  .01447017  14053-2  14691-2 0  9993","line2":"2 57292  42.9614 152.5530 0021967  23.2483 308.1967 16.09760918148061","category":"Starlink"},{"name":"STARLINK-34162","line1":"1 64018U 25101AA  26144.13757389  .00016974  00000+0  62403-3 0  9992","line2":"2 64018  43.0013 291.8986 0005092 265.8829  94.1441 15.27619362 58593","category":"Starlink"},{"name":"UNKNOWN","line1":"1 88220U          23201.76062425  .00006968  00000+0  50302-3 0  9991","line2":"2 88220  97.6647 252.2911 0014791 162.2873 197.8871 15.04328852  3488","category":"Other"},{"name":"STARLINK-35974","line1":"1 66862U 25281Q   26144.06760968  .00009195  00000+0  34316-3 0  9998","line2":"2 66862  43.0031 277.7738 0001062 282.5693  77.5040 15.27586522 27719","category":"Starlink"},{"name":"KUIPER-00118","line1":"1 65154U 25171Y   26144.19067265  .00001989  00000+0  28951-3 0  9994","line2":"2 65154  51.8987 201.7197 0000498  80.2453 279.8566 14.79985806 43828","category":"Other"},{"name":"SL-6 R/B(2)","line1":"1 19810U 89014D   26101.72295808  .00000335  00000+0  00000+0 0  9991","line2":"2 19810  63.8347  49.7267 7165376 251.5274  23.8154  2.07389455281218","category":"Other"},{"name":"KOREASAT 5A","line1":"1 42984U 17067A   26143.96641067 -.00000364  00000+0  00000+0 0  9995","line2":"2 42984   0.0116 305.2108 0000796 102.8894 294.5324  1.00273186 31281","category":"Other"},{"name":"ONEWEB-0522","line1":"1 54140U 22138AD  26144.18437867 -.00000003  00000+0 -39768-4 0  9992","line2":"2 54140  87.9160 309.7400 0001762  88.6780 271.4555 13.19725335173642","category":"Other"},{"name":"STARLINK-36375","line1":"1 67920U 26036S   26144.05041601  .00010057  00000+0  37446-3 0  9994","line2":"2 67920  43.0001 180.0033 0001467 274.2550  85.8134 15.27583199 15243","category":"Starlink"},{"name":"FENGYUN 1C DEB","line1":"1 32441U 99025DBD 26089.46332375  .00002689  00000+0  11630-2 0  9994","line2":"2 32441  97.7817 164.8991 0247695 355.3743   4.5143 14.09938431960954","category":"Weather"},{"name":"STARLINK-2244","line1":"1 48588U 21041AM  23362.39346321  .00001428  00000+0  11477-3 0  9995","line2":"2 48588  53.0532 133.3047 0001327  90.4887 269.6254 15.06390003144722","category":"Starlink"},{"name":"COSMOS 2251 DEB","line1":"1 35888U 93036AUB 26104.34042151  .00000776  00000+0  16943-3 0  9991","line2":"2 35888  74.0301 123.1948 0050943 224.8156 134.8890 14.58837235880618","category":"Other"},{"name":"STARLINK-3609","line1":"1 51808U 22017AS  26144.00572630  .00000515  00000+0  50419-4 0  9997","line2":"2 51808  53.2166   1.0133 0001326  92.8397 267.2747 15.08839348235335","category":"Starlink"},{"name":"STARLINK-35737","line1":"1 66219U 25244P   26143.68514959  .00009061  00000+0  31769-3 0  9998","line2":"2 66219  53.1585 241.4231 0001250  87.6302 272.4842 15.30197786 33141","category":"Starlink"},{"name":"FENGYUN 1C DEB","line1":"1 29925U 99025HX  23179.16604171  .00160766  00000+0  58660-2 0  9992","line2":"2 29925  99.0185  40.4152 0025520 111.3573  11.2239 15.27150504875280","category":"Weather"},{"name":"STARLINK-1450","line1":"1 45667U 20035L   23362.49987717  .00005662  00000+0  39868-3 0  9991","line2":"2 45667  53.0540  67.8186 0001309 119.0090 241.1030 15.06400086197464","category":"Starlink"},{"name":"ONEWEB-0559","line1":"1 56060U 23043Q   26143.98237752 -.00000007  00000+0 -49601-4 0  9990","line2":"2 56060  87.9254 248.7890 0001729  99.1478 260.9852 13.21825636155054","category":"Other"},{"name":"STARLINK-36671","line1":"1 68967U 26099S   26144.16668980 -.00457421  00000+0 -31434-2 0  9994","line2":"2 68967  53.1591 274.8508 0000731  71.7775  40.0703 15.75245043  4858","category":"Starlink"},{"name":"GSAT-14","line1":"1 39498U 14001A   26144.10122208 -.00000082  00000+0  00000+0 0  9991","line2":"2 39498   0.0461 108.1247 0000615 244.0999 359.9320  1.00271163 45133","category":"Other"},{"name":"MONITOR-1 (RS32S)","line1":"1 53374U 22096E   24083.05507708  .13697664  26305-5  41619-3 0  9997","line2":"2 53374  97.3546   4.4009 0009211 226.8648 133.1885 16.44409031 91229","category":"Other"},{"name":"FENGYUN 1C DEB","line1":"1 31351U 99025BRF 26104.41883921  .00000255  00000+0  17066-3 0  9991","line2":"2 31351  98.8079  92.9617 0093838  66.2365 294.8612 14.07107002631003","category":"Weather"},{"name":"SINE (SINDHUNETRA)","line1":"1 47702U 21015D   23347.87924373  .10946403  25229-5  34273-3 0  9995","line2":"2 47702  97.3458  78.9542 0010894 279.2519  80.7551 16.44045697156161","category":"Other"},{"name":"STARLINK-6355","line1":"1 57356U 23099AE  26143.53802987  .00001875  00000+0  77667-4 0  9994","line2":"2 57356  43.0015 179.2106 0001201 281.0307  79.0410 15.27574961157643","category":"Starlink"},{"name":"STARLINK-34171","line1":"1 64082U 25107U   26144.00956907  .00014658  00000+0  54102-3 0  9996","line2":"2 64082  42.9980 135.8323 0001102 271.4634  88.6091 15.27585729 57645","category":"Starlink"},{"name":"STARLINK-35942","line1":"1 66926U 25286B   26143.88794199  .00017400  00000+0  53890-3 0  9992","line2":"2 66926  53.1609   8.8999 0001225  96.0842 264.0300 15.33564458 26936","category":"Starlink"},{"name":"STARLINK-34257","line1":"1 65225U 25176AD  26143.78063793  .00017838  00000+0  53774-3 0  9995","line2":"2 65225  53.1592 163.4759 0001363  90.9732 269.1427 15.34405015 44563","category":"Starlink"},{"name":"SL-12 R/B(2)","line1":"1 20926U 90094D   26104.36433565  .00000085  00000+0  00000+0 0  9990","line2":"2 20926  12.5559 336.4850 0032926 152.6846  23.4689  1.00853552130589","category":"Other"},{"name":"ARKYD 6A","line1":"1 43130U 18004V   24056.51206482  .08342929  24643-5  76486-3 0  9994","line2":"2 43130  97.2783 149.1803 0010598 269.1581  90.8504 16.38778103341851","category":"Other"},{"name":"STARLINK-5262","line1":"1 54207U 22141BC  26143.93989964 -.00000442  00000+0 -96565-5 0  9998","line2":"2 54207  53.2162  15.9168 0001439  89.9098 270.2059 15.08838723197365","category":"Starlink"}]}